     3.03           N: GNSS NAV DATA    M: Mixed            RINEX VERSION / TYPE
RTKCONV 2.4.3 b34                       20260605 044254 UTC PGM / RUN BY / DATE 
format: Javad GREIS                                         COMMENT             
log: C:\Users\USER\OneDrive\Desktop\GNSS_ML_Project\data\sadCOMMENT             
                                                            END OF HEADER       
G21 2026 06 02 08 00 00  .411772169173D-03 -.227373675443D-11  .000000000000D+00
      .780000000000D+02 -.995937500000D+02  .433839499728D-08  .265806251125D+01
     -.519677996635D-05  .783145893365D-03  .306405127048D-05  .515356386948D+04
      .201600000000D+06  .894069671631D-07  .250131813463D+01 -.130385160446D-07
      .963956744942D+00  .323437500000D+03 -.113498827065D+00 -.812891003030D-08
     -.209651589973D-09  .100000000000D+01  .242100000000D+04  .000000000000D+00
      .200000000000D+01  .000000000000D+00 -.977888703346D-08  .846000000000D+03
      .194460000000D+06  .000000000000D+00
C26 2026 06 02 05 59 46 -.648732879199D-03 -.553690426841D-11  .000000000000D+00
      .300000000000D+02 -.617187500000D+01  .466519432407D-08 -.263109914629D+01
     -.298488885164D-06  .908471760340D-03  .475440174341D-05  .528264570427D+04
      .194400000000D+06  .856816768646D-07 -.116829389019D+01 -.423751771450D-07
      .945116643696D+00  .256671875000D+03  .746229728492D+00 -.704457914928D-08
     -.800033324599D-10  .000000000000D+00  .106500000000D+04  .000000000000D+00
      .200000000000D+01  .000000000000D+00 -.499999996961D-08 -.499999996961D-08
      .194386000000D+06  .300000000000D+02
G21 2026 06 02 07 30 00  .411776389228D-03 -.222044604925D-11  .000000000000D+00
      .154000000000D+03 -.967109375000D+02  .433446626220D-08  .239586112112D+01
     -.505708158016D-05  .783383380622D-03  .300072133541D-05  .515356320188D+04
      .199800000000D+06  .502914190292D-07  .250133261752D+01 -.456348061562D-07
      .963957191863D+00  .323832031250D+03 -.113858985061D+00 -.810367390657D-08
     -.187686389320D-09  .100000000000D+01  .242100000000D+04  .000000000000D+00
      .512000000000D+03  .100000000000D+01 -.977888703346D-08  .154000000000D+03
      .194412000000D+06  .000000000000D+00
C26 2026 06 02 05 59 46 -.648732937407D-03 -.553690426841D-11  .000000000000D+00
      .100000000000D+02 -.531250000000D+01  .466001553692D-08 -.263128429905D+01
     -.310130417347D-06  .908326008357D-03  .475719571114D-05  .528264579040D+04
      .194400000000D+06  .940635800362D-07 -.116829406939D+01  .139698386192D-07
      .945116570550D+00  .256859375000D+03  .746414539664D+00 -.704636493795D-08
     -.451804533758D-10  .000000000000D+00  .106500000000D+04  .000000000000D+00
      .819200000000D+04  .000000000000D+00  .174622982740D-09 -.101281329989D-07
      .194388000000D+06  .100000000000D+02
C31 2026 06 02 05 59 46  .794119318016D-03 -.898747742895D-11  .000000000000D+00
      .300000000000D+02  .138421875000D+03  .391802034413D-08  .133491077532D+01
      .672275200486D-05  .840650754981D-03  .552879646420D-05  .528267195702D+04
      .194400000000D+06  .204890966415D-07  .904748828089D+00 -.232830643654D-07
      .941666989238D+00  .243718750000D+03  .103757443267D+01 -.689671584733D-08
     -.507163982558D-10  .000000000000D+00  .106500000000D+04  .000000000000D+00
      .200000000000D+01  .000000000000D+00 -.140000000481D-08 -.140000000481D-08
      .194386000000D+06  .300000000000D+02
G23 2026 06 02 08 00 00  .654188916087D-03  .420641299570D-11  .000000000000D+00
      .800000000000D+02 -.986875000000D+02  .366550982605D-08 -.282790914938D+01
     -.505708158016D-05  .624965352472D-02  .343099236488D-05  .515371999741D+04
      .201600000000D+06 -.372529029846D-07  .246277160814D+01 -.596046447754D-07
      .988981796113D+00  .327843750000D+03 -.274398703389D+01 -.772746473707D-08
     -.131076888450D-09  .100000000000D+01  .242100000000D+04  .000000000000D+00
      .280000000000D+01  .000000000000D+00 -.838190317154D-08  .848000000000D+03
      .194460000000D+06  .000000000000D+00
C31 2026 06 02 05 59 46  .794119376224D-03 -.898747742895D-11  .000000000000D+00
      .100000000000D+02  .134906250000D+03  .388784051559D-08  .133487301521D+01
      .665150582790D-05  .842413341161D-03  .563543289900D-05  .528267280927D+04
      .194400000000D+06  .195577740669D-07  .904748866856D+00 -.130385160446D-07
      .941666966563D+00  .237808593750D+03  .103760886391D+01 -.690332326541D-08
     -.535736601294D-10  .000000000000D+00  .106500000000D+04  .000000000000D+00
      .200000000000D+01  .000000000000D+00 -.157160684466D-08 -.518048182130D-08
      .194392000000D+06  .100000000000D+02
G23 2026 06 02 07 30 00  .654181174468D-03  .416733314523D-11  .000000000000D+00
      .154000000000D+03 -.977421875000D+02  .367943897769D-08 -.309019754802D+01
     -.503100454807D-05  .625015964033D-02  .370293855667D-05  .515371922381D+04
      .199800000000D+06 -.381842255592D-07  .246278553805D+01 -.484287738800D-07
      .988982059438D+00  .321234375000D+03 -.274423236306D+01 -.772097939438D-08
     -.134469886925D-09  .100000000000D+01  .242100000000D+04  .000000000000D+00
      .512000000000D+03  .100000000000D+01 -.838190317154D-08  .154000000000D+03
      .194412000000D+06  .000000000000D+00
E28 2026 06 02 05 50 00 -.479923910461D-04 -.297006863548D-11  .000000000000D+00
      .690000000000D+02 -.690000000000D+02  .303726937160D-08 -.254893180103D+01
     -.312365591526D-05  .109585467726D-03  .998936593533D-05  .544061950493D+04
      .193800000000D+06  .428408384323D-07 -.254630497217D+01 -.186264514923D-07
      .948287893140D+00  .122281250000D+03  .228531516713D+01 -.533272212928D-08
      .583952895411D-09  .517000000000D+03  .242100000000D+04  .000000000000D+00
      .312000000000D+01  .000000000000D+00 -.931322574615D-09  .000000000000D+00
      .195050000000D+06  .000000000000D+00
C33 2026 06 02 05 59 46 -.914337811992D-03  .719424519957D-12  .000000000000D+00
      .300000000000D+02 -.153625000000D+03  .293262215548D-08 -.165202244518D+01
     -.768108293414D-05  .652626273222D-03  .810204073787D-05  .528264182281D+04
      .194400000000D+06 -.116415321827D-07  .304848332186D+01 -.228174030781D-07
      .988510645790D+00  .206468750000D+03  .288445412669D+00 -.635240746041D-08
      .546451333320D-10  .000000000000D+00  .106500000000D+04  .000000000000D+00
      .200000000000D+01  .000000000000D+00 -.450999984025D-07 -.450999984025D-07
      .197176000000D+06  .300000000000D+02
G24 2026 06 02 08 00 00  .410182401538D-04  .190993887372D-10  .000000000000D+00
      .840000000000D+02  .100312500000D+02  .532272171272D-08 -.144599825696D+01
      .866129994392D-06  .181453949772D-01  .615045428276D-05  .515363142395D+04
      .201600000000D+06  .359490513802D-06 -.181929035519D+01  .255182385445D-06
      .934713148589D+00  .243125000000D+03  .115005781758D+01 -.819141263379D-08
      .525736184737D-09  .100000000000D+01  .242100000000D+04  .000000000000D+00
      .200000000000D+01  .000000000000D+00  .232830643654D-08  .840000000000D+02
      .194460000000D+06  .000000000000D+00
C33 2026 06 02 05 59 46 -.914337811992D-03  .719424519957D-12  .000000000000D+00
      .260000000000D+02 -.141535156250D+03  .292190742346D-08 -.165107255419D+01
     -.700913369656D-05  .647852721158D-03  .884942710400D-05  .528264378224D+04
      .194400000000D+06  .651925802231D-08  .304848339282D+01 -.251457095146D-07
      .988510647985D+00  .193121093750D+03  .287486982621D+00 -.635865772076D-08
      .446447167745D-10  .000000000000D+00  .106500000000D+04  .000000000000D+00
      .819200000000D+04  .000000000000D+00 -.426080077887D-07  .336440280080D-07
      .194386000000D+06  .260000000000D+02
G24 2026 06 02 07 25 00  .409792119171D-04  .190922833099D-10  .000000000000D+00
      .153000000000D+03  .122929687500D+02  .531325703277D-08 -.175230769584D+01
      .639818608761D-06  .181463299086D-01  .627245754004D-05  .515363115142D+04
      .199500000000D+06  .332482159138D-06 -.181927366403D+01  .717118382454D-07
      .934712424444D+00  .245949218750D+03  .115005754547D+01 -.807367265690D-08
      .584310053145D-09  .100000000000D+01  .242100000000D+04  .000000000000D+00
      .800000000000D+01  .100000000000D+01  .232830643654D-08  .153000000000D+03
      .195798000000D+06  .000000000000D+00
C34 2026 06 02 05 59 46  .958722899668D-03  .787814258274D-11  .000000000000D+00
      .300000000000D+02  .148656250000D+03  .388766193672D-08  .420827647744D+00
      .736024230719D-05  .640973681584D-03  .520562753081D-05  .528262136459D+04
      .194400000000D+06 -.577419996262D-07  .907479910352D+00 -.176951289177D-07
      .944278758829D+00  .249093750000D+03  .116664390000D+01 -.684778523774D-08
      .250010413937D-11  .000000000000D+00  .106500000000D+04  .000000000000D+00
      .200000000000D+01  .000000000000D+00 -.620000006890D-08 -.620000006890D-08
      .194386000000D+06  .300000000000D+02
G25 2026 06 02 08 00 00  .417950563133D-03 -.295585778076D-11  .000000000000D+00
      .560000000000D+02 -.107500000000D+02  .503342394803D-08  .302632681313D+01
     -.646337866783D-06  .128541692393D-01  .694021582603D-05  .515368214798D+04
      .201600000000D+06  .102445483208D-06 -.685242989567D+00 -.247731804848D-06
      .947152866204D+00  .234687500000D+03  .116033776194D+01 -.790104339589D-08
     -.452161691492D-09  .100000000000D+01  .242100000000D+04  .000000000000D+00
      .200000000000D+01  .000000000000D+00  .558793544769D-08  .560000000000D+02
      .194460000000D+06  .000000000000D+00
